[{"OBJECT_NAME":"EXPRESS-MD2","OBJECT_ID":"2012-044B","EPOCH":"2026-03-09T21:41:06.150624","MEAN_MOTION":12.36605018,"ECCENTRICITY":0.15990987,"INCLINATION":49.8419,"RA_OF_ASC_NODE":23.8539,"ARG_OF_PERICENTER":264.6071,"MEAN_ANOMALY":77.1068,"EPHEMERIS_TYPE":0,"CLASSIFICATION_TYPE":"U","NORAD_CAT_ID":38745,"ELEMENT_SET_NO":999,"REV_AT_EPOCH":54849,"BSTAR":0.00055780914,"MEAN_MOTION_DOT":0.00031331,"MEAN_MOTION_DDOT":4.210112e-6},{"OBJECT_NAME":"COSMOS 2227","OBJECT_ID":"1992-093A","EPOCH":"2026-03-09T22:55:00.062112","MEAN_MOTION":14.13760152,"ECCENTRICITY":0.00173265,"INCLINATION":70.9791,"RA_OF_ASC_NODE":31.3022,"ARG_OF_PERICENTER":25.1604,"MEAN_ANOMALY":335.0358,"EPHEMERIS_TYPE":0,"CLASSIFICATION_TYPE":"U","NORAD_CAT_ID":22284,"ELEMENT_SET_NO":999,"REV_AT_EPOCH":71280,"BSTAR":-8.5607774e-5,"MEAN_MOTION_DOT":-2.1e-6,"MEAN_MOTION_DDOT":0}]
